{
  "norad_id": 48881,
  "name": "STARLINK-3005",
  "history": [
    {
      "epoch": "2026-03-28T21:04:27.293088Z",
      "apogee_km": 564.8717422268764,
      "perigee_km": 561.2614834037795,
      "latitude_deg": 7.802684884156761e-05,
      "longitude_deg": 71.77144383219166,
      "height_km": 565.4737130375336,
      "semi_major_axis_km": 6941.203612815328,
      "eccentricity": 0.00026006,
      "inclination_deg": 97.6589,
      "raan_deg": 214.1774,
      "arg_perigee_deg": 69.0215,
      "mean_anomaly_deg": 291.1288,
      "mean_motion_rev_day": 15.01241584
    },
    {
      "epoch": "2026-03-29T01:52:23.706624Z",
      "apogee_km": 564.8180452706074,
      "perigee_km": 561.3252290843802,
      "latitude_deg": 3.452274151190512e-05,
      "longitude_deg": -0.21339483875987364,
      "height_km": 565.6543219604055,
      "semi_major_axis_km": 6941.208637177494,
      "eccentricity": 0.0002516,
      "inclination_deg": 97.6591,
      "raan_deg": 214.3747,
      "arg_perigee_deg": 74.363,
      "mean_anomaly_deg": 285.7872,
      "mean_motion_rev_day": 15.01239954
    },
    {
      "epoch": "2026-03-30T01:52:05.027808Z",
      "apogee_km": 564.7943798818978,
      "perigee_km": 561.2654906120179,
      "latitude_deg": -6.956812897271856e-06,
      "longitude_deg": -0.1359922227593281,
      "height_km": 566.1756569051033,
      "semi_major_axis_km": 6941.166935246957,
      "eccentricity": 0.0002542,
      "inclination_deg": 97.6593,
      "raan_deg": 215.3597,
      "arg_perigee_deg": 93.0011,
      "mean_anomaly_deg": 267.1504,
      "mean_motion_rev_day": 15.01253483
    },
    {
      "epoch": "2026-03-30T01:52:05.028672Z",
      "apogee_km": 564.7943104702272,
      "perigee_km": 561.2655600236867,
      "latitude_deg": -5.815333669316715e-06,
      "longitude_deg": -0.1359959852856204,
      "height_km": 566.1756532700465,
      "semi_major_axis_km": 6941.166935246957,
      "eccentricity": 0.00025419,
      "inclination_deg": 97.6593,
      "raan_deg": 215.3597,
      "arg_perigee_deg": 93.0011,
      "mean_anomaly_deg": 267.1504,
      "mean_motion_rev_day": 15.01253483
    },
    {
      "epoch": "2026-03-30T08:15:59.914944Z",
      "apogee_km": 564.7712443787277,
      "perigee_km": 561.2669323159644,
      "latitude_deg": -1.4707042693366686e-05,
      "longitude_deg": -96.11416761126576,
      "height_km": 566.151026712107,
      "semi_major_axis_km": 6941.156088347346,
      "eccentricity": 0.00025243,
      "inclination_deg": 97.6595,
      "raan_deg": 215.623,
      "arg_perigee_deg": 92.57,
      "mean_anomaly_deg": 267.5813,
      "mean_motion_rev_day": 15.01257002
    },
    {
      "epoch": "2026-03-30T21:03:50.348448Z",
      "apogee_km": 564.7372897110017,
      "perigee_km": 561.3011397384644,
      "latitude_deg": 3.4093863677869525e-05,
      "longitude_deg": 71.9258186908775,
      "height_km": 566.1279998608827,
      "semi_major_axis_km": 6941.156214724732,
      "eccentricity": 0.00024752,
      "inclination_deg": 97.6595,
      "raan_deg": 216.1487,
      "arg_perigee_deg": 91.8458,
      "mean_anomaly_deg": 268.305,
      "mean_motion_rev_day": 15.01256961
    },
    {
      "epoch": "2026-03-31T14:39:36.537120Z",
      "apogee_km": 564.6949757698303,
      "perigee_km": 561.3146397094606,
      "latitude_deg": -1.8474945651888704e-05,
      "longitude_deg": 167.98382516338194,
      "height_km": 566.0647512618958,
      "semi_major_axis_km": 6941.141807739645,
      "eccentricity": 0.0002435,
      "inclination_deg": 97.6596,
      "raan_deg": 216.8718,
      "arg_perigee_deg": 90.2178,
      "mean_anomaly_deg": 269.9325,
      "mean_motion_rev_day": 15.01261635
    },
    {
      "epoch": "2026-04-01T21:03:13.246560Z",
      "apogee_km": 564.7601709555083,
      "perigee_km": 561.2673838843111,
      "latitude_deg": 5.3944058570318216e-05,
      "longitude_deg": 72.08184316532176,
      "height_km": 566.0574424326315,
      "semi_major_axis_km": 6941.15077741991,
      "eccentricity": 0.0002516,
      "inclination_deg": 97.6594,
      "raan_deg": 218.121,
      "arg_perigee_deg": 89.682,
      "mean_anomaly_deg": 270.4693,
      "mean_motion_rev_day": 15.01258725
    },
    {
      "epoch": "2026-04-02T21:02:54.443328Z",
      "apogee_km": 564.7571145176462,
      "perigee_km": 561.2573895857622,
      "latitude_deg": -4.4151674192539306e-07,
      "longitude_deg": 72.16106753231621,
      "height_km": 566.0355357298869,
      "semi_major_axis_km": 6941.144252051704,
      "eccentricity": 0.0002521,
      "inclination_deg": 97.6591,
      "raan_deg": 219.1073,
      "arg_perigee_deg": 89.1787,
      "mean_anomaly_deg": 270.9726,
      "mean_motion_rev_day": 15.01260842
    },
    {
      "epoch": "2026-04-02T22:38:53.229696Z",
      "apogee_km": 564.7620375754705,
      "perigee_km": 561.2542604629616,
      "latitude_deg": -6.497922790842898e-05,
      "longitude_deg": 48.16603719002889,
      "height_km": 566.0302331957527,
      "semi_major_axis_km": 6941.145149019216,
      "eccentricity": 0.00025268,
      "inclination_deg": 97.6589,
      "raan_deg": 219.1729,
      "arg_perigee_deg": 88.9779,
      "mean_anomaly_deg": 271.1734,
      "mean_motion_rev_day": 15.01260551
    },
    {
      "epoch": "2026-04-03T21:02:36.209472Z",
      "apogee_km": 564.3542483375104,
      "perigee_km": 561.6860675260014,
      "latitude_deg": -3.5545029698128674e-05,
      "longitude_deg": 72.23680968034452,
      "height_km": 566.0495873620646,
      "semi_major_axis_km": 6941.157157931755,
      "eccentricity": 0.0001922,
      "inclination_deg": 97.658,
      "raan_deg": 220.0925,
      "arg_perigee_deg": 88.9245,
      "mean_anomaly_deg": 271.2199,
      "mean_motion_rev_day": 15.01256655
    },
    {
      "epoch": "2026-04-04T06:38:29.827104Z",
      "apogee_km": 564.6429797377305,
      "perigee_km": 561.4866764424614,
      "latitude_deg": 8.068658327775823e-05,
      "longitude_deg": -71.73669811806904,
      "height_km": 566.0245671386069,
      "semi_major_axis_km": 6941.201828090096,
      "eccentricity": 0.00022736,
      "inclination_deg": 97.6595,
      "raan_deg": 220.4866,
      "arg_perigee_deg": 86.5846,
      "mean_anomaly_deg": 273.5639,
      "mean_motion_rev_day": 15.01242163
    },
    {
      "epoch": "2026-04-05T08:14:09.252096Z",
      "apogee_km": 564.7046386404509,
      "perigee_km": 561.3126395895279,
      "latitude_deg": -1.5968978322023097e-06,
      "longitude_deg": -95.64997913824543,
      "height_km": 566.0124616557176,
      "semi_major_axis_km": 6941.145639114989,
      "eccentricity": 0.00024434,
      "inclination_deg": 97.6586,
      "raan_deg": 221.5387,
      "arg_perigee_deg": 88.3209,
      "mean_anomaly_deg": 271.8295,
      "mean_motion_rev_day": 15.01260392
    },
    {
      "epoch": "2026-04-05T19:25:59.373408Z",
      "apogee_km": 564.8103233449274,
      "perigee_km": 561.1420838390941,
      "latitude_deg": 5.6410923625177205e-05,
      "longitude_deg": 96.38861851086929,
      "height_km": 566.4393121317007,
      "semi_major_axis_km": 6941.113203592011,
      "eccentricity": 0.00026424,
      "inclination_deg": 97.6558,
      "raan_deg": 221.996,
      "arg_perigee_deg": 102.9058,
      "mean_anomaly_deg": 257.2462,
      "mean_motion_rev_day": 15.01270915
    },
    {
      "epoch": "2026-04-07T08:13:31.826208Z",
      "apogee_km": 564.4191522178153,
      "perigee_km": 561.608402622006,
      "latitude_deg": 9.555590677447064e-06,
      "longitude_deg": -95.49340709375234,
      "height_km": 566.0029817341865,
      "semi_major_axis_km": 6941.15077741991,
      "eccentricity": 0.00020247,
      "inclination_deg": 97.6582,
      "raan_deg": 223.5102,
      "arg_perigee_deg": 87.3462,
      "mean_anomaly_deg": 272.7994,
      "mean_motion_rev_day": 15.01258725
    },
    {
      "epoch": "2026-04-08T14:37:08.114016Z",
      "apogee_km": 564.2450411254331,
      "perigee_km": 561.822294915467,
      "latitude_deg": 8.621970167306643e-05,
      "longitude_deg": 168.6060665157769,
      "height_km": 566.0976431725538,
      "semi_major_axis_km": 6941.17066802045,
      "eccentricity": 0.00017452,
      "inclination_deg": 97.6583,
      "raan_deg": 224.7591,
      "arg_perigee_deg": 90.4363,
      "mean_anomaly_deg": 269.7062,
      "mean_motion_rev_day": 15.01252272
    },
    {
      "epoch": "2026-04-09T19:24:45.890208Z",
      "apogee_km": 564.2467688896604,
      "perigee_km": 561.7826600310273,
      "latitude_deg": -2.996611421069714e-05,
      "longitude_deg": 96.69955724929132,
      "height_km": 566.1332158842123,
      "semi_major_axis_km": 6941.151714460344,
      "eccentricity": 0.0001775,
      "inclination_deg": 97.6587,
      "raan_deg": 225.9425,
      "arg_perigee_deg": 92.967,
      "mean_anomaly_deg": 267.1757,
      "mean_motion_rev_day": 15.01258421
    },
    {
      "epoch": "2026-04-10T08:12:35.754336Z",
      "apogee_km": 564.2509043821792,
      "perigee_km": 561.7548704786605,
      "latitude_deg": 4.360705049082165e-06,
      "longitude_deg": -95.25787760506624,
      "height_km": 566.119515565328,
      "semi_major_axis_km": 6941.13988743042,
      "eccentricity": 0.0001798,
      "inclination_deg": 97.6588,
      "raan_deg": 226.4684,
      "arg_perigee_deg": 92.8449,
      "mean_anomaly_deg": 267.2981,
      "mean_motion_rev_day": 15.01262258
    },
    {
      "epoch": "2026-04-11T19:24:08.948160Z",
      "apogee_km": 564.2687181833662,
      "perigee_km": 561.7518581766717,
      "latitude_deg": 5.791278344341377e-05,
      "longitude_deg": 96.85429797550731,
      "height_km": 566.1534881506288,
      "semi_major_axis_km": 6941.147288180019,
      "eccentricity": 0.0001813,
      "inclination_deg": 97.6591,
      "raan_deg": 227.9142,
      "arg_perigee_deg": 94.035,
      "mean_anomaly_deg": 266.1082,
      "mean_motion_rev_day": 15.01259857
    }
  ]
}